STARLINK-34046          
1 64035U 25102P   26065.59101035  .00007125  00000+0  60419-3 0  9998
2 64035  70.0009 122.3281 0003457 265.8031  94.2733 14.98339971 45268
STARLINK-34085          
1 64036U 25102Q   26065.57858341 -.00375490  00000+0 -33719-1 0  9992
2 64036  70.0036 122.3997 0006606 338.5798  21.5083 14.97682493 45484
STARLINK-34008          
1 64037U 25102R   26065.56578409  .00454496  00000+0  35364-1 0  9996
2 64037  70.0017 122.3522 0005141 315.7186  44.3561 14.99063601 45490
STARLINK-34079          
1 64038U 25102S   26065.60335053  .00009233  00000+0  78036-3 0  9998
2 64038  70.0011 122.0847 0003516 274.7481  85.3276 14.98340637 45593
STARLINK-34089          
1 64039U 25102T   26065.59521217  .00013378  00000+0  11269-2 0  9995
2 64039  70.0000 122.4553 0003646 271.0686  89.0056 14.98328983 45486
STARLINK-34117          
1 64040U 25102U   26065.58266506  .00024655  00000+0  20687-2 0  9997
2 64040  70.0031 122.4128 0001382 178.5650 181.5513 14.98298070 45420
STARLINK-34111          
1 64041U 25102V   26065.58334491  .00045209  00000+0  37736-2 0  9998
2 64041  69.9999 122.3325 0003925 271.6270 159.6033 14.98314726  5726
STARLINK-34049          
1 64042U 25102W   26065.39057562  .00003494  00000+0  30040-3 0  9991
2 64042  70.0005 122.9500 0003376 271.9468  88.1305 14.98335317 45452
STARLINK-34096          
1 64043U 25102X   26065.37388280  .00004669  00000+0  39890-3 0  9991
2 64043  70.0003 122.8915 0003539 266.1999  93.8756 14.98325471 45347
STARLINK-34081          
1 64044U 25102Y   26065.44899640  .00016024  00000+0  13470-2 0  9990
2 64044  69.9993 122.7495 0004399 273.8874  86.1782 14.98345582 45403
STARLINK-34033          
1 64045U 25102Z   26065.35762806 -.00686976  00000+0 -64364-1 0  9992
2 64045  70.0023 122.8341 0007616 136.1304 224.0460 14.96692528 45382
STARLINK-33952          
1 64046U 25102AA  26065.41559372  .00007055  00000+0  59842-3 0  9992
2 64046  70.0015 122.6345 0003549 268.1701  91.9052 14.98333405 45469
STARLINK-33961          
1 64047U 25102AB  26065.56605295 -.00288795  00000+0 -25688-1 0  9998
2 64047  70.0020 122.3572 0003506 207.6824 152.4149 14.97596569 45362
STARLINK-11741 [DTC]    
1 64064U 25107A   26065.52081756  .00345491  00000+0  25741-2 0  9994
2 64064  42.9996 117.8758 0001651 293.2790  66.7904 15.70946594 46791
STARLINK-11709 [DTC]    
1 64065U 25107B   26065.49957474  .00217710  00000+0  16504-2 0  9999
2 64065  42.9997 117.7041 0001638 268.8396  91.2284 15.70922521 46790
STARLINK-11737 [DTC]    
1 64066U 25107C   26065.54723438  .00237180  00000+0  17958-2 0  9994
2 64066  42.9996 117.1939 0001320 297.5040  62.5694 15.70890628 46803
