[{"OBJECT_NAME":"STARLINK-34046","OBJECT_ID":"2025-102P","EPOCH":"2026-03-06T14:11:03.294240","MEAN_MOTION":14.98339971,"ECCENTRICITY":0.00034574,"INCLINATION":70.0009,"RA_OF_ASC_NODE":122.3281,"ARG_OF_PERICENTER":265.8031,"MEAN_ANOMALY":94.2733,"EPHEMERIS_TYPE":0,"CLASSIFICATION_TYPE":"U","NORAD_CAT_ID":64035,"ELEMENT_SET_NO":999,"REV_AT_EPOCH":4526,"BSTAR":0.00060419376,"MEAN_MOTION_DOT":7.125e-5,"MEAN_MOTION_DDOT":0},{"OBJECT_NAME":"STARLINK-34085","OBJECT_ID":"2025-102Q","EPOCH":"2026-03-06T13:53:09.606624","MEAN_MOTION":14.97682493,"ECCENTRICITY":0.00066065,"INCLINATION":70.0036,"RA_OF_ASC_NODE":122.3997,"ARG_OF_PERICENTER":338.5798,"MEAN_ANOMALY":21.5083,"EPHEMERIS_TYPE":0,"CLASSIFICATION_TYPE":"U","NORAD_CAT_ID":64036,"ELEMENT_SET_NO":999,"REV_AT_EPOCH":4548,"BSTAR":-0.033719224,"MEAN_MOTION_DOT":-0.0037549,"MEAN_MOTION_DDOT":0},{"OBJECT_NAME":"STARLINK-34008","OBJECT_ID":"2025-102R","EPOCH":"2026-03-06T13:34:43.745376","MEAN_MOTION":14.99063601,"ECCENTRICITY":0.00051419,"INCLINATION":70.0017,"RA_OF_ASC_NODE":122.3522,"ARG_OF_PERICENTER":315.7186,"MEAN_ANOMALY":44.3561,"EPHEMERIS_TYPE":0,"CLASSIFICATION_TYPE":"U","NORAD_CAT_ID":64037,"ELEMENT_SET_NO":999,"REV_AT_EPOCH":4549,"BSTAR":0.035363585,"MEAN_MOTION_DOT":0.00454496,"MEAN_MOTION_DDOT":0},{"OBJECT_NAME":"STARLINK-34079","OBJECT_ID":"2025-102S","EPOCH":"2026-03-06T14:28:49.485792","MEAN_MOTION":14.98340637,"ECCENTRICITY":0.00035166,"INCLINATION":70.0011,"RA_OF_ASC_NODE":122.0847,"ARG_OF_PERICENTER":274.7481,"MEAN_ANOMALY":85.3276,"EPHEMERIS_TYPE":0,"CLASSIFICATION_TYPE":"U","NORAD_CAT_ID":64038,"ELEMENT_SET_NO":999,"REV_AT_EPOCH":4559,"BSTAR":0.00078035863,"MEAN_MOTION_DOT":9.233e-5,"MEAN_MOTION_DDOT":0},{"OBJECT_NAME":"STARLINK-34089","OBJECT_ID":"2025-102T","EPOCH":"2026-03-06T14:17:06.331488","MEAN_MOTION":14.98328983,"ECCENTRICITY":0.0003646,"INCLINATION":70,"RA_OF_ASC_NODE":122.4553,"ARG_OF_PERICENTER":271.0686,"MEAN_ANOMALY":89.0056,"EPHEMERIS_TYPE":0,"CLASSIFICATION_TYPE":"U","NORAD_CAT_ID":64039,"ELEMENT_SET_NO":999,"REV_AT_EPOCH":4548,"BSTAR":0.00112685,"MEAN_MOTION_DOT":0.00013378,"MEAN_MOTION_DDOT":0},{"OBJECT_NAME":"STARLINK-34117","OBJECT_ID":"2025-102U","EPOCH":"2026-03-06T13:59:02.261184","MEAN_MOTION":14.9829807,"ECCENTRICITY":0.00013822,"INCLINATION":70.0031,"RA_OF_ASC_NODE":122.4128,"ARG_OF_PERICENTER":178.565,"MEAN_ANOMALY":181.5513,"EPHEMERIS_TYPE":0,"CLASSIFICATION_TYPE":"U","NORAD_CAT_ID":64040,"ELEMENT_SET_NO":999,"REV_AT_EPOCH":4542,"BSTAR":0.0020686556,"MEAN_MOTION_DOT":0.00024655,"MEAN_MOTION_DDOT":0},{"OBJECT_NAME":"STARLINK-34111","OBJECT_ID":"2025-102V","EPOCH":"2026-03-06T14:00:01.000224","MEAN_MOTION":14.98314726,"ECCENTRICITY":0.00039256,"INCLINATION":69.9999,"RA_OF_ASC_NODE":122.3325,"ARG_OF_PERICENTER":271.627,"MEAN_ANOMALY":159.6033,"EPHEMERIS_TYPE":0,"CLASSIFICATION_TYPE":"U","NORAD_CAT_ID":64041,"ELEMENT_SET_NO":999,"REV_AT_EPOCH":572,"BSTAR":0.0037735606,"MEAN_MOTION_DOT":0.00045209,"MEAN_MOTION_DDOT":0},{"OBJECT_NAME":"STARLINK-34049","OBJECT_ID":"2025-102W","EPOCH":"2026-03-06T09:22:25.733568","MEAN_MOTION":14.98335317,"ECCENTRICITY":0.0003376,"INCLINATION":70.0005,"RA_OF_ASC_NODE":122.95,"ARG_OF_PERICENTER":271.9468,"MEAN_ANOMALY":88.1305,"EPHEMERIS_TYPE":0,"CLASSIFICATION_TYPE":"U","NORAD_CAT_ID":64042,"ELEMENT_SET_NO":999,"REV_AT_EPOCH":4545,"BSTAR":0.00030039703,"MEAN_MOTION_DOT":3.494e-5,"MEAN_MOTION_DDOT":0},{"OBJECT_NAME":"STARLINK-34096","OBJECT_ID":"2025-102X","EPOCH":"2026-03-06T08:58:23.473920","MEAN_MOTION":14.98325471,"ECCENTRICITY":0.00035396,"INCLINATION":70.0003,"RA_OF_ASC_NODE":122.8915,"ARG_OF_PERICENTER":266.1999,"MEAN_ANOMALY":93.8756,"EPHEMERIS_TYPE":0,"CLASSIFICATION_TYPE":"U","NORAD_CAT_ID":64043,"ELEMENT_SET_NO":999,"REV_AT_EPOCH":4534,"BSTAR":0.0003988991,"MEAN_MOTION_DOT":4.669e-5,"MEAN_MOTION_DDOT":0},{"OBJECT_NAME":"STARLINK-34081","OBJECT_ID":"2025-102Y","EPOCH":"2026-03-06T10:46:33.288960","MEAN_MOTION":14.98345582,"ECCENTRICITY":0.0004399,"INCLINATION":69.9993,"RA_OF_ASC_NODE":122.7495,"ARG_OF_PERICENTER":273.8874,"MEAN_ANOMALY":86.1782,"EPHEMERIS_TYPE":0,"CLASSIFICATION_TYPE":"U","NORAD_CAT_ID":64044,"ELEMENT_SET_NO":999,"REV_AT_EPOCH":4540,"BSTAR":0.0013470308,"MEAN_MOTION_DOT":0.00016024,"MEAN_MOTION_DDOT":0},{"OBJECT_NAME":"STARLINK-34033","OBJECT_ID":"2025-102Z","EPOCH":"2026-03-06T08:34:59.064384","MEAN_MOTION":14.96692528,"ECCENTRICITY":0.00076166,"INCLINATION":70.0023,"RA_OF_ASC_NODE":122.8341,"ARG_OF_PERICENTER":136.1304,"MEAN_ANOMALY":224.046,"EPHEMERIS_TYPE":0,"CLASSIFICATION_TYPE":"U","NORAD_CAT_ID":64045,"ELEMENT_SET_NO":999,"REV_AT_EPOCH":4538,"BSTAR":-0.064363958,"MEAN_MOTION_DOT":-0.00686976,"MEAN_MOTION_DDOT":0},{"OBJECT_NAME":"STARLINK-33952","OBJECT_ID":"2025-102AA","EPOCH":"2026-03-06T09:58:27.297408","MEAN_MOTION":14.98333405,"ECCENTRICITY":0.00035496,"INCLINATION":70.0015,"RA_OF_ASC_NODE":122.6345,"ARG_OF_PERICENTER":268.1701,"MEAN_ANOMALY":91.9052,"EPHEMERIS_TYPE":0,"CLASSIFICATION_TYPE":"U","NORAD_CAT_ID":64046,"ELEMENT_SET_NO":999,"REV_AT_EPOCH":4546,"BSTAR":0.00059841836,"MEAN_MOTION_DOT":7.055e-5,"MEAN_MOTION_DDOT":0},{"OBJECT_NAME":"STARLINK-33961","OBJECT_ID":"2025-102AB","EPOCH":"2026-03-06T13:35:06.974880","MEAN_MOTION":14.97596569,"ECCENTRICITY":0.00035062,"INCLINATION":70.002,"RA_OF_ASC_NODE":122.3572,"ARG_OF_PERICENTER":207.6824,"MEAN_ANOMALY":152.4149,"EPHEMERIS_TYPE":0,"CLASSIFICATION_TYPE":"U","NORAD_CAT_ID":64047,"ELEMENT_SET_NO":999,"REV_AT_EPOCH":4536,"BSTAR":-0.025688399,"MEAN_MOTION_DOT":-0.00288795,"MEAN_MOTION_DDOT":0},{"OBJECT_NAME":"STARLINK-11741 [DTC]","OBJECT_ID":"2025-107A","EPOCH":"2026-03-06T12:29:58.637184","MEAN_MOTION":15.70946594,"ECCENTRICITY":0.00016515,"INCLINATION":42.9996,"RA_OF_ASC_NODE":117.8758,"ARG_OF_PERICENTER":293.279,"MEAN_ANOMALY":66.7904,"EPHEMERIS_TYPE":0,"CLASSIFICATION_TYPE":"U","NORAD_CAT_ID":64064,"ELEMENT_SET_NO":999,"REV_AT_EPOCH":4679,"BSTAR":0.0025740942,"MEAN_MOTION_DOT":0.00345491,"MEAN_MOTION_DDOT":0},{"OBJECT_NAME":"STARLINK-11709 [DTC]","OBJECT_ID":"2025-107B","EPOCH":"2026-03-06T11:59:23.257536","MEAN_MOTION":15.70922521,"ECCENTRICITY":0.00016388,"INCLINATION":42.9997,"RA_OF_ASC_NODE":117.7041,"ARG_OF_PERICENTER":268.8396,"MEAN_ANOMALY":91.2284,"EPHEMERIS_TYPE":0,"CLASSIFICATION_TYPE":"U","NORAD_CAT_ID":64065,"ELEMENT_SET_NO":999,"REV_AT_EPOCH":4679,"BSTAR":0.0016503726,"MEAN_MOTION_DOT":0.0021771,"MEAN_MOTION_DDOT":0},{"OBJECT_NAME":"STARLINK-11737 [DTC]","OBJECT_ID":"2025-107C","EPOCH":"2026-03-06T13:08:01.050432","MEAN_MOTION":15.70890628,"ECCENTRICITY":0.00013203,"INCLINATION":42.9996,"RA_OF_ASC_NODE":117.1939,"ARG_OF_PERICENTER":297.504,"MEAN_ANOMALY":62.5694,"EPHEMERIS_TYPE":0,"CLASSIFICATION_TYPE":"U","NORAD_CAT_ID":64066,"ELEMENT_SET_NO":999,"REV_AT_EPOCH":4680,"BSTAR":0.0017958224,"MEAN_MOTION_DOT":0.0023718,"MEAN_MOTION_DDOT":0}]
